{
  "type": "FeatureCollection",
  "features": [
    {
      "type": "Feature",
      "id": "candidate/e0/n0",
      "properties": {
        "id": "candidate/e0/n0",
        "height": 12
      },
      "geometry": {
        "type": "Polygon",
        "coordinates": [
          [
            [
              -87.623418312,
              41.881651126
            ],
            [
              -87.622935688,
              41.881651126
            ],
            [
              -87.622935688,
              41.882012874
            ],
            [
              -87.623418312,
              41.882012874
            ],
            [
              -87.623418312,
              41.881651126
            ]
          ]
        ]
      }
    },
    {
      "type": "Feature",
      "id": "candidate/e1/n0",
      "properties": {
        "id": "candidate/e1/n0",
        "height": 15
      },
      "geometry": {
        "type": "Polygon",
        "coordinates": [
          [
            [
              -87.617566501,
              41.881651126
            ],
            [
              -87.617083878,
              41.881651126
            ],
            [
              -87.617083878,
              41.882012874
            ],
            [
              -87.617566501,
              41.882012874
            ],
            [
              -87.617566501,
              41.881651126
            ]
          ]
        ]
      }
    },
    {
      "type": "Feature",
      "id": "candidate/e2/n0",
      "properties": {
        "id": "candidate/e2/n0",
        "height": 18
      },
      "geometry": {
        "type": "Polygon",
        "coordinates": [
          [
            [
              -87.611714691,
              41.881651126
            ],
            [
              -87.611232067,
              41.881651126
            ],
            [
              -87.611232067,
              41.882012874
            ],
            [
              -87.611714691,
              41.882012874
            ],
            [
              -87.611714691,
              41.881651126
            ]
          ]
        ]
      }
    },
    {
      "type": "Feature",
      "id": "candidate/e3/n0",
      "properties": {
        "id": "candidate/e3/n0",
        "height": 21
      },
      "geometry": {
        "type": "Polygon",
        "coordinates": [
          [
            [
              -87.60586288,
              41.881651126
            ],
            [
              -87.605380256,
              41.881651126
            ],
            [
              -87.605380256,
              41.882012874
            ],
            [
              -87.60586288,
              41.882012874
            ],
            [
              -87.60586288,
              41.881651126
            ]
          ]
        ]
      }
    },
    {
      "type": "Feature",
      "id": "candidate/e4/n0",
      "properties": {
        "id": "candidate/e4/n0",
        "height": 24
      },
      "geometry": {
        "type": "Polygon",
        "coordinates": [
          [
            [
              -87.600011069,
              41.881651126
            ],
            [
              -87.599528446,
              41.881651126
            ],
            [
              -87.599528446,
              41.882012874
            ],
            [
              -87.600011069,
              41.882012874
            ],
            [
              -87.600011069,
              41.881651126
            ]
          ]
        ]
      }
    },
    {
      "type": "Feature",
      "id": "candidate/e5/n0",
      "properties": {
        "id": "candidate/e5/n0",
        "height": 27
      },
      "geometry": {
        "type": "Polygon",
        "coordinates": [
          [
            [
              -87.594159259,
              41.881651126
            ],
            [
              -87.593676635,
              41.881651126
            ],
            [
              -87.593676635,
              41.882012874
            ],
            [
              -87.594159259,
              41.882012874
            ],
            [
              -87.594159259,
              41.881651126
            ]
          ]
        ]
      }
    },
    {
      "type": "Feature",
      "id": "candidate/e6/n0",
      "properties": {
        "id": "candidate/e6/n0",
        "height": 30
      },
      "geometry": {
        "type": "Polygon",
        "coordinates": [
          [
            [
              -87.588307448,
              41.881651126
            ],
            [
              -87.587824824,
              41.881651126
            ],
            [
              -87.587824824,
              41.882012874
            ],
            [
              -87.588307448,
              41.882012874
            ],
            [
              -87.588307448,
              41.881651126
            ]
          ]
        ]
      }
    },
    {
      "type": "Feature",
      "id": "candidate/e7/n0",
      "properties": {
        "id": "candidate/e7/n0",
        "height": 12
      },
      "geometry": {
        "type": "Polygon",
        "coordinates": [
          [
            [
              -87.582455637,
              41.881651126
            ],
            [
              -87.581973014,
              41.881651126
            ],
            [
              -87.581973014,
              41.882012874
            ],
            [
              -87.582455637,
              41.882012874
            ],
            [
              -87.582455637,
              41.881651126
            ]
          ]
        ]
      }
    },
    {
      "type": "Feature",
      "id": "candidate/e8/n0",
      "properties": {
        "id": "candidate/e8/n0",
        "height": 15
      },
      "geometry": {
        "type": "Polygon",
        "coordinates": [
          [
            [
              -87.576603827,
              41.881651126
            ],
            [
              -87.576121203,
              41.881651126
            ],
            [
              -87.576121203,
              41.882012874
            ],
            [
              -87.576603827,
              41.882012874
            ],
            [
              -87.576603827,
              41.881651126
            ]
          ]
        ]
      }
    },
    {
      "type": "Feature",
      "id": "candidate/e9/n0",
      "properties": {
        "id": "candidate/e9/n0",
        "height": 18
      },
      "geometry": {
        "type": "Polygon",
        "coordinates": [
          [
            [
              -87.570752016,
              41.881651126
            ],
            [
              -87.570269393,
              41.881651126
            ],
            [
              -87.570269393,
              41.882012874
            ],
            [
              -87.570752016,
              41.882012874
            ],
            [
              -87.570752016,
              41.881651126
            ]
          ]
        ]
      }
    },
    {
      "type": "Feature",
      "id": "candidate/e10/n0",
      "properties": {
        "id": "candidate/e10/n0",
        "height": 21
      },
      "geometry": {
        "type": "Polygon",
        "coordinates": [
          [
            [
              -87.564900206,
              41.881651126
            ],
            [
              -87.564417582,
              41.881651126
            ],
            [
              -87.564417582,
              41.882012874
            ],
            [
              -87.564900206,
              41.882012874
            ],
            [
              -87.564900206,
              41.881651126
            ]
          ]
        ]
      }
    },
    {
      "type": "Feature",
      "id": "candidate/e11/n0",
      "properties": {
        "id": "candidate/e11/n0",
        "height": 24
      },
      "geometry": {
        "type": "Polygon",
        "coordinates": [
          [
            [
              -87.559048395,
              41.881651126
            ],
            [
              -87.558565771,
              41.881651126
            ],
            [
              -87.558565771,
              41.882012874
            ],
            [
              -87.559048395,
              41.882012874
            ],
            [
              -87.559048395,
              41.881651126
            ]
          ]
        ]
      }
    },
    {
      "type": "Feature",
      "id": "candidate/e12/n0",
      "properties": {
        "id": "candidate/e12/n0",
        "height": 27
      },
      "geometry": {
        "type": "Polygon",
        "coordinates": [
          [
            [
              -87.553196584,
              41.881651126
            ],
            [
              -87.552713961,
              41.881651126
            ],
            [
              -87.552713961,
              41.882012874
            ],
            [
              -87.553196584,
              41.882012874
            ],
            [
              -87.553196584,
              41.881651126
            ]
          ]
        ]
      }
    },
    {
      "type": "Feature",
      "id": "candidate/e13/n0",
      "properties": {
        "id": "candidate/e13/n0",
        "height": 30
      },
      "geometry": {
        "type": "Polygon",
        "coordinates": [
          [
            [
              -87.547344774,
              41.881651126
            ],
            [
              -87.54686215,
              41.881651126
            ],
            [
              -87.54686215,
              41.882012874
            ],
            [
              -87.547344774,
              41.882012874
            ],
            [
              -87.547344774,
              41.881651126
            ]
          ]
        ]
      }
    },
    {
      "type": "Feature",
      "id": "candidate/e14/n0",
      "properties": {
        "id": "candidate/e14/n0",
        "height": 12
      },
      "geometry": {
        "type": "Polygon",
        "coordinates": [
          [
            [
              -87.541492963,
              41.881651126
            ],
            [
              -87.541010339,
              41.881651126
            ],
            [
              -87.541010339,
              41.882012874
            ],
            [
              -87.541492963,
              41.882012874
            ],
            [
              -87.541492963,
              41.881651126
            ]
          ]
        ]
      }
    },
    {
      "type": "Feature",
      "id": "candidate/e15/n0",
      "properties": {
        "id": "candidate/e15/n0",
        "height": 15
      },
      "geometry": {
        "type": "Polygon",
        "coordinates": [
          [
            [
              -87.535641152,
              41.881651126
            ],
            [
              -87.535158529,
              41.881651126
            ],
            [
              -87.535158529,
              41.882012874
            ],
            [
              -87.535641152,
              41.882012874
            ],
            [
              -87.535641152,
              41.881651126
            ]
          ]
        ]
      }
    },
    {
      "type": "Feature",
      "id": "candidate/e16/n0",
      "properties": {
        "id": "candidate/e16/n0",
        "height": 18
      },
      "geometry": {
        "type": "Polygon",
        "coordinates": [
          [
            [
              -87.529789342,
              41.881651126
            ],
            [
              -87.529306718,
              41.881651126
            ],
            [
              -87.529306718,
              41.882012874
            ],
            [
              -87.529789342,
              41.882012874
            ],
            [
              -87.529789342,
              41.881651126
            ]
          ]
        ]
      }
    },
    {
      "type": "Feature",
      "id": "candidate/e17/n0",
      "properties": {
        "id": "candidate/e17/n0",
        "height": 21
      },
      "geometry": {
        "type": "Polygon",
        "coordinates": [
          [
            [
              -87.523937531,
              41.881651126
            ],
            [
              -87.523454908,
              41.881651126
            ],
            [
              -87.523454908,
              41.882012874
            ],
            [
              -87.523937531,
              41.882012874
            ],
            [
              -87.523937531,
              41.881651126
            ]
          ]
        ]
      }
    },
    {
      "type": "Feature",
      "id": "candidate/e18/n0",
      "properties": {
        "id": "candidate/e18/n0",
        "height": 24
      },
      "geometry": {
        "type": "Polygon",
        "coordinates": [
          [
            [
              -87.518085721,
              41.881651126
            ],
            [
              -87.517603097,
              41.881651126
            ],
            [
              -87.517603097,
              41.882012874
            ],
            [
              -87.518085721,
              41.882012874
            ],
            [
              -87.518085721,
              41.881651126
            ]
          ]
        ]
      }
    },
    {
      "type": "Feature",
      "id": "candidate/e19/n0",
      "properties": {
        "id": "candidate/e19/n0",
        "height": 27
      },
      "geometry": {
        "type": "Polygon",
        "coordinates": [
          [
            [
              -87.51223391,
              41.881651126
            ],
            [
              -87.511751286,
              41.881651126
            ],
            [
              -87.511751286,
              41.882012874
            ],
            [
              -87.51223391,
              41.882012874
            ],
            [
              -87.51223391,
              41.881651126
            ]
          ]
        ]
      }
    },
    {
      "type": "Feature",
      "id": "candidate/e20/n0",
      "properties": {
        "id": "candidate/e20/n0",
        "height": 30
      },
      "geometry": {
        "type": "Polygon",
        "coordinates": [
          [
            [
              -87.506382099,
              41.881651126
            ],
            [
              -87.505899476,
              41.881651126
            ],
            [
              -87.505899476,
              41.882012874
            ],
            [
              -87.506382099,
              41.882012874
            ],
            [
              -87.506382099,
              41.881651126
            ]
          ]
        ]
      }
    },
    {
      "type": "Feature",
      "id": "candidate/e0/n1",
      "properties": {
        "id": "candidate/e0/n1",
        "height": 12
      },
      "geometry": {
        "type": "Polygon",
        "coordinates": [
          [
            [
              -87.623418312,
              41.886037329
            ],
            [
              -87.622935688,
              41.886037329
            ],
            [
              -87.622935688,
              41.886399077
            ],
            [
              -87.623418312,
              41.886399077
            ],
            [
              -87.623418312,
              41.886037329
            ]
          ]
        ]
      }
    },
    {
      "type": "Feature",
      "id": "candidate/e1/n1",
      "properties": {
        "id": "candidate/e1/n1",
        "height": 15
      },
      "geometry": {
        "type": "Polygon",
        "coordinates": [
          [
            [
              -87.617566501,
              41.886037329
            ],
            [
              -87.617083878,
              41.886037329
            ],
            [
              -87.617083878,
              41.886399077
            ],
            [
              -87.617566501,
              41.886399077
            ],
            [
              -87.617566501,
              41.886037329
            ]
          ]
        ]
      }
    }
  ]
}
